[
  {
    "name": "KUIPER-00527",
    "noradId": "69269",
    "line1": "1 69269U 26118C   26191.33384502  .00014827  00000+0  44769-3 0  9991",
    "line2": "2 69269  51.8613 302.0147 0008719 259.5560 100.4442 15.34443294  7531"
  },
  {
    "name": "KUIPER-00562",
    "noradId": "69270",
    "line1": "1 69270U 26118D   26190.53118774  .00023346  00000+0  62332-3 0  9992",
    "line2": "2 69270  51.8723 304.9342 0000370   9.2895 350.8099 15.37997312  7424"
  },
  {
    "name": "KUIPER-00570",
    "noradId": "69271",
    "line1": "1 69271U 26118E   26191.58337963 -.01418909  00000+0 -90257-1 0  9993",
    "line2": "2 69271  51.8741 301.8439 0008676 283.1772 172.6433 15.11444096  5554"
  },
  {
    "name": "KUIPER-00572",
    "noradId": "69272",
    "line1": "1 69272U 26118F   26191.61909103 -.00174153  00000+0 -54278-2 0  9992",
    "line2": "2 69272  51.8711 300.2174 0009058 293.2751  66.7280 15.33346822  7585"
  },
  {
    "name": "KUIPER-00581",
    "noradId": "69273",
    "line1": "1 69273U 26118G   26191.58337963 -.00080868  00000+0 -50998-2 0  9992",
    "line2": "2 69273  51.8860 301.4990 0006906 296.3683 351.0316 15.08934789  5201"
  },
  {
    "name": "KUIPER-00584",
    "noradId": "69274",
    "line1": "1 69274U 26118H   26191.58337963 -.00039280  00000+0 -32065-2 0  9990",
    "line2": "2 69274  51.8883 303.1717 0011873 292.6313 207.9043 14.98896559  5252"
  },
  {
    "name": "KUIPER-00587",
    "noradId": "69275",
    "line1": "1 69275U 26118J   26190.50807146  .00017196  00000+0  47545-3 0  9997",
    "line2": "2 69275  51.8623 305.4981 0007020 277.6151  82.4038 15.37104335  7413"
  },
  {
    "name": "KUIPER-00590",
    "noradId": "69276",
    "line1": "1 69276U 26118K   26191.58337963 -.02199557  00000+0 -10316+0 0  9990",
    "line2": "2 69276  51.8755 300.4337 0001707   3.0529 160.0826 15.23032433  4471"
  },
  {
    "name": "KUIPER-00592",
    "noradId": "69277",
    "line1": "1 69277U 26118L   26191.58337963 -.01112921  00000+0 -43666-1 0  9996",
    "line2": "2 69277  51.8760 300.3690 0001432 178.2621  18.5432 15.28242803  3784"
  },
  {
    "name": "KUIPER-00593",
    "noradId": "69278",
    "line1": "1 69278U 26118M   26191.31481734  .00017569  00000+0  46115-3 0  9997",
    "line2": "2 69278  51.8712 301.1868 0002832 256.6600 103.4072 15.38714906  7609"
  },
  {
    "name": "KUIPER-00594",
    "noradId": "69279",
    "line1": "1 69279U 26118N   26191.37584446  .00011959  00000+0  33149-3 0  9998",
    "line2": "2 69279  51.8718 300.8464 0001791  54.7572 305.3583 15.37364066  7553"
  },
  {
    "name": "KUIPER-00595",
    "noradId": "69280",
    "line1": "1 69280U 26118P   26191.31353431  .00024671  00000+0  67116-3 0  9998",
    "line2": "2 69280  51.8719 301.1803 0000844 341.8722  18.2235 15.37384934  7574"
  },
  {
    "name": "KUIPER-00596",
    "noradId": "69281",
    "line1": "1 69281U 26118Q   26191.58337963 -.00031895  00000+0 -25741-2 0  9995",
    "line2": "2 69281  51.8849 303.0379 0014127 288.5019 301.6568 14.99207250  5368"
  },
  {
    "name": "KUIPER-00597",
    "noradId": "69282",
    "line1": "1 69282U 26118R   26190.49635137  .00011944  00000+0  32800-3 0  9995",
    "line2": "2 69282  51.8652 305.4298 0006087 263.2330  96.7964 15.37646140  7417"
  },
  {
    "name": "KUIPER-00599",
    "noradId": "69283",
    "line1": "1 69283U 26118S   26190.87972114  .00011798  00000+0  32278-3 0  9993",
    "line2": "2 69283  51.8675 303.5132 0005819 260.7904  99.2424 15.37778774  7474"
  },
  {
    "name": "KUIPER-00600",
    "noradId": "69284",
    "line1": "1 69284U 26118T   26191.28546623  .00022984  00000+0  62655-3 0  9993",
    "line2": "2 69284  51.8652 301.7140 0007723 272.1218  87.8884 15.37339982  7534"
  },
  {
    "name": "KUIPER-00601",
    "noradId": "69285",
    "line1": "1 69285U 26118U   26191.58337963 -.00014473  00000+0 -60948-3 0  9991",
    "line2": "2 69285  51.8794 300.4594 0002844 259.7025 227.1679 15.22150284  5794"
  },
  {
    "name": "KUIPER-00602",
    "noradId": "69286",
    "line1": "1 69286U 26118V   26191.31140560  .00012438  00000+0  32860-3 0  9997",
    "line2": "2 69286  51.8700 301.1631 0002088 260.5519  99.5233 15.38817242  7543"
  },
  {
    "name": "KUIPER-00603",
    "noradId": "69287",
    "line1": "1 69287U 26118W   26191.32805493  .00021751  00000+0  57861-3 0  9998",
    "line2": "2 69287  51.8669 301.2623 0005043 264.4860  95.5551 15.38147490  7546"
  },
  {
    "name": "KUIPER-00605",
    "noradId": "69288",
    "line1": "1 69288U 26118X   26191.58337963 -.00086485  00000+0 -52037-2 0  9995",
    "line2": "2 69288  51.8848 301.5004 0003735 295.8622  71.7078 15.10692303  2860"
  },
  {
    "name": "KUIPER-00606",
    "noradId": "69289",
    "line1": "1 69289U 26118Y   26190.47950891  .00019595  00000+0  52108-3 0  9990",
    "line2": "2 69289  51.8701 305.3319 0003948 244.9841 115.0737 15.38230886  7418"
  },
  {
    "name": "KUIPER-00607",
    "noradId": "69290",
    "line1": "1 69290U 26118Z   26191.33208870  .00023272  00000+0  62231-3 0  9996",
    "line2": "2 69290  51.8665 301.2941 0005106 260.5440  99.4970 15.37942566  7544"
  },
  {
    "name": "KUIPER-00608",
    "noradId": "69291",
    "line1": "1 69291U 26118AA  26191.32995775  .00011186  00000+0  34418-3 0  9990",
    "line2": "2 69291  51.8582 301.9839 0007643 280.3897  79.6227 15.34126766  7537"
  },
  {
    "name": "KUIPER-00610",
    "noradId": "69292",
    "line1": "1 69292U 26118AB  26190.53036957  .00020920  00000+0  54711-3 0  9995",
    "line2": "2 69292  51.8681 304.9258 0002231 280.5949  79.4787 15.38705398  7429"
  },
  {
    "name": "KUIPER-00613",
    "noradId": "69293",
    "line1": "1 69293U 26118AC  26191.58337963 -.01229447  00000+0 -72594-1 0  9998",
    "line2": "2 69293  51.8789 301.5597 0008791 273.0138  25.6153 15.14145295  4641"
  },
  {
    "name": "KUIPER-00618",
    "noradId": "69294",
    "line1": "1 69294U 26118AD  26191.31552799  .00023242  00000+0  63097-3 0  9998",
    "line2": "2 69294  51.8732 301.1919 0000217 203.7552 156.3425 15.37484821  7541"
  },
  {
    "name": "KUIPER-00620",
    "noradId": "69295",
    "line1": "1 69295U 26118AE  26191.37412409  .00012563  00000+0  33321-3 0  9999",
    "line2": "2 69295  51.8719 300.8360 0000988 223.9502 136.1406 15.38684198  7553"
  },
  {
    "name": "KUIPER-00423",
    "noradId": "69592",
    "line1": "1 69592U 26140A   26191.37593422  .00036847  00000+0  95484-3 0  9998",
    "line2": "2 69592  51.8789 286.3918 0013574 253.0513 106.8987 15.38588034  4803"
  },
  {
    "name": "KUIPER-00428",
    "noradId": "69593",
    "line1": "1 69593U 26140B   26191.27931295  .00018615  00000+0  51735-3 0  9996",
    "line2": "2 69593  51.8818 287.2409 0007858  16.4101 343.7139 15.36879109  4786"
  },
  {
    "name": "KUIPER-00481",
    "noradId": "69594",
    "line1": "1 69594U 26140C   26191.58022925  .00018490  00000+0  49636-3 0  9990",
    "line2": "2 69594  51.8773 285.5071 0010903 264.7381  95.2362 15.37933276  4836"
  },
  {
    "name": "KUIPER-00490",
    "noradId": "69595",
    "line1": "1 69595U 26140D   26190.61509600  .00020131  00000+0  54112-3 0  9994",
    "line2": "2 69595  51.8782 290.2805 0006540 318.3400  41.7088 15.37868929  4681"
  },
  {
    "name": "KUIPER-00493",
    "noradId": "69596",
    "line1": "1 69596U 26140E   26191.28371234  .00017729  00000+0  49772-3 0  9994",
    "line2": "2 69596  51.8797 287.2660 0007699  21.4042 338.7265 15.36600794  4783"
  },
  {
    "name": "KUIPER-00496",
    "noradId": "69597",
    "line1": "1 69597U 26140F   26191.36564055  .00011083  00000+0  33772-3 0  9999",
    "line2": "2 69597  51.8780 287.0540 0010383  37.4339 322.7368 15.34427947  4794"
  },
  {
    "name": "KUIPER-00513",
    "noradId": "69598",
    "line1": "1 69598U 26140G   26190.61253992  .00026350  00000+0  69986-3 0  9991",
    "line2": "2 69598  51.8820 290.2737 0007047 316.5040  43.5391 15.38069388  4684"
  },
  {
    "name": "KUIPER-00516",
    "noradId": "69599",
    "line1": "1 69599U 26140H   26190.61880120  .00012103  00000+0  33370-3 0  9990",
    "line2": "2 69599  51.8784 290.3069 0006835 334.1487  25.9157 15.37505084  4689"
  },
  {
    "name": "KUIPER-00517",
    "noradId": "69600",
    "line1": "1 69600U 26140J   26191.57393092  .00036899  00000+0  95023-3 0  9997",
    "line2": "2 69600  51.8774 285.4622 0010680 273.2031  86.7735 15.38814134  4836"
  },
  {
    "name": "KUIPER-00520",
    "noradId": "69601",
    "line1": "1 69601U 26140K   26190.61986370  .00026029  00000+0  70279-3 0  9999",
    "line2": "2 69601  51.8793 290.3215 0006880 333.8181  26.2457 15.37569154  4688"
  },
  {
    "name": "KUIPER-00522",
    "noradId": "69602",
    "line1": "1 69602U 26140L   26190.59591053  .00011416  00000+0  30433-3 0  9999",
    "line2": "2 69602  51.8792 290.1610 0013256 244.9258 115.0353 15.38558445  4681"
  },
  {
    "name": "KUIPER-00528",
    "noradId": "69603",
    "line1": "1 69603U 26140M   26190.62200721  .00024351  00000+0  66169-3 0  9990",
    "line2": "2 69603  51.8764 290.3271 0005926 340.6948  19.3813 15.37415170  4684"
  },
  {
    "name": "KUIPER-00532",
    "noradId": "69604",
    "line1": "1 69604U 26140N   26190.63012575  .00025515  00000+0  70892-3 0  9991",
    "line2": "2 69604  51.8764 290.3785 0005654  14.2215 345.8929 15.36698531  4682"
  },
  {
    "name": "KUIPER-00533",
    "noradId": "69605",
    "line1": "1 69605U 26140P   26190.60899255  .00012480  00000+0  33629-3 0  9991",
    "line2": "2 69605  51.8775 290.2427 0007954 306.5126  53.5128 15.38181942  4689"
  },
  {
    "name": "KUIPER-00534",
    "noradId": "69606",
    "line1": "1 69606U 26140Q   26191.50036260  .00017242  00000+0  45260-3 0  9996",
    "line2": "2 69606  51.8798 285.7297 0013903 245.1340 114.8202 15.38643816  4829"
  },
  {
    "name": "KUIPER-00537",
    "noradId": "69607",
    "line1": "1 69607U 26140R   26191.62268009  .00027334  00000+0  81814-3 0  9996",
    "line2": "2 69607  51.8781 285.7847 0010832  35.6027 324.5679 15.34284606  4838"
  }
]